{
  "norad_id": 54042,
  "name": "YAOGAN-36 02A",
  "history": [
    {
      "epoch": "2026-03-27T18:23:25.914624",
      "apogee_km": 517.6256274617754,
      "perigee_km": 475.7856102770402,
      "latitude_deg": 18.758871084185486,
      "longitude_deg": -78.23787264013663,
      "semi_major_axis_km": 6874.8426188694075,
      "eccentricity": 0.00304298,
      "inclination_deg": 35.006,
      "raan_deg": 271.7871,
      "arg_perigee_deg": 189.0849,
      "mean_anomaly_deg": 170.9318,
      "mean_motion_rev_day": 15.23030572
    }
  ]
}